{
  "type": "FeatureCollection",
  "features": [
    {
      "type": "Feature",
      "properties": {
        "norad_id": 41773,
        "name": "SKYSAT-C2",
        "group": "resource",
        "lat": -18.152446122576176,
        "lon": 23.87471307065988,
        "alt_km": 456.6512409022898,
        "timestamp": "2025-12-23T11:34:47.839372+00:00",
        "meta_object_name": "SKYSAT-C2",
        "meta_object_id": "2016-058D",
        "meta_epoch": "2025-12-22T13:47:28.316256",
        "meta_mean_motion": 15.37479301,
        "meta_eccentricity": 0.00031137,
        "meta_inclination": 97.0346,
        "meta_ra_of_asc_node": 20.6848,
        "meta_arg_of_pericenter": 5.7873,
        "meta_mean_anomaly": 354.3408,
        "meta_ephemeris_type": 0,
        "meta_classification_type": "U",
        "meta_norad_cat_id": 41773,
        "meta_element_set_no": 999,
        "meta_rev_at_epoch": 51787,
        "meta_bstar": 0.00032762855,
        "meta_mean_motion_dot": 0.00011972,
        "meta_mean_motion_ddot": 0,
        "tle_line1": "1 41773U 16058D   25356.57463329  .00011972  00000+0  32763-3 0  9995",
        "tle_line2": "2 41773  97.0346  20.6848 0003113   5.7873 354.3408 15.37479301517874"
      },
      "geometry": {
        "type": "Point",
        "coordinates": [
          23.87471307065988,
          -18.152446122576176
        ]
      }
    },
    {
      "type": "Feature",
      "properties": {
        "norad_id": 41774,
        "name": "SKYSAT-C3",
        "group": "resource",
        "lat": 82.82613071955817,
        "lon": -44.31223415667616,
        "alt_km": 423.24123101575606,
        "timestamp": "2025-12-23T11:34:47.839381+00:00",
        "meta_object_name": "SKYSAT-C3",
        "meta_object_id": "2016-058E",
        "meta_epoch": "2025-12-23T01:52:18.674688",
        "meta_mean_motion": 15.4475041,
        "meta_eccentricity": 0.0002087,
        "meta_inclination": 96.9283,
        "meta_ra_of_asc_node": 30.3439,
        "meta_arg_of_pericenter": 106.8529,
        "meta_mean_anomaly": 253.2949,
        "meta_ephemeris_type": 0,
        "meta_classification_type": "U",
        "meta_norad_cat_id": 41774,
        "meta_element_set_no": 999,
        "meta_rev_at_epoch": 51885,
        "meta_bstar": 0.00042585,
        "meta_mean_motion_dot": 0.0001985,
        "meta_mean_motion_ddot": 0,
        "tle_line1": "1 41774U 16058E   25357.07799392  .00019850  00000+0  42585-3 0  9990",
        "tle_line2": "2 41774  96.9283  30.3439 0002087 106.8529 253.2949 15.44750410518854"
      },
      "geometry": {
        "type": "Point",
        "coordinates": [
          -44.31223415667616,
          82.82613071955817
        ]
      }
    },
    {
      "type": "Feature",
      "properties": {
        "norad_id": 41785,
        "name": "ALSAT 1B",
        "group": "resource",
        "lat": 27.121663937183026,
        "lon": 4.792336152360876,
        "alt_km": 648.067546961186,
        "timestamp": "2025-12-23T11:34:47.839390+00:00",
        "meta_object_name": "ALSAT 1B",
        "meta_object_id": "2016-059C",
        "meta_epoch": "2025-12-23T04:55:50.600064",
        "meta_mean_motion": 14.7208579,
        "meta_eccentricity": 0.0010775,
        "meta_inclination": 97.7803,
        "meta_ra_of_asc_node": 8.543,
        "meta_arg_of_pericenter": 74.0306,
        "meta_mean_anomaly": 286.2089,
        "meta_ephemeris_type": 0,
        "meta_classification_type": "U",
        "meta_norad_cat_id": 41785,
        "meta_element_set_no": 999,
        "meta_rev_at_epoch": 49468,
        "meta_bstar": 8.5774e-05,
        "meta_mean_motion_dot": 4.93e-06,
        "meta_mean_motion_ddot": 0,
        "tle_line1": "1 41785U 16059C   25357.20544676  .00000493  00000+0  85774-4 0  9992",
        "tle_line2": "2 41785  97.7803   8.5430 0010775  74.0306 286.2089 14.72085790494680"
      },
      "geometry": {
        "type": "Point",
        "coordinates": [
          4.792336152360876,
          27.121663937183026
        ]
      }
    },
    {
      "type": "Feature",
      "properties": {
        "norad_id": 41787,
        "name": "PATHFINDER 1",
        "group": "resource",
        "lat": -75.34408620883056,
        "lon": 31.430605368187425,
        "alt_km": 689.1503930149065,
        "timestamp": "2025-12-23T11:34:47.839399+00:00",
        "meta_object_name": "PATHFINDER 1",
        "meta_object_id": "2016-059E",
        "meta_epoch": "2025-12-22T22:50:24.395136",
        "meta_mean_motion": 14.6733842,
        "meta_eccentricity": 0.0029719,
        "meta_inclination": 97.8137,
        "meta_ra_of_asc_node": 359.2514,
        "meta_arg_of_pericenter": 50.0679,
        "meta_mean_anomaly": 310.3131,
        "meta_ephemeris_type": 0,
        "meta_classification_type": "U",
        "meta_norad_cat_id": 41787,
        "meta_element_set_no": 999,
        "meta_rev_at_epoch": 49386,
        "meta_bstar": 0.00014467,
        "meta_mean_motion_dot": 7.76e-06,
        "meta_mean_motion_ddot": 0,
        "tle_line1": "1 41787U 16059E   25356.95167124  .00000776  00000+0  14467-3 0  9998",
        "tle_line2": "2 41787  97.8137 359.2514 0029719  50.0679 310.3131 14.67338420493868"
      },
      "geometry": {
        "type": "Point",
        "coordinates": [
          31.430605368187425,
          -75.34408620883056
        ]
      }
    },
    {
      "type": "Feature",
      "properties": {
        "norad_id": 41790,
        "name": "SCATSAT 1",
        "group": "resource",
        "lat": 3.7280793432954713,
        "lon": 53.75158949638926,
        "alt_km": 635.0113204102418,
        "timestamp": "2025-12-23T11:34:47.839408+00:00",
        "meta_object_name": "SCATSAT 1",
        "meta_object_id": "2016-059H",
        "meta_epoch": "2025-12-22T14:27:15.854112",
        "meta_mean_motion": 14.78966851,
        "meta_eccentricity": 0.00564639,
        "meta_inclination": 98.1449,
        "meta_ra_of_asc_node": 53.3952,
        "meta_arg_of_pericenter": 96.9229,
        "meta_mean_anomaly": 263.8409,
        "meta_ephemeris_type": 0,
        "meta_classification_type": "U",
        "meta_norad_cat_id": 41790,
        "meta_element_set_no": 999,
        "meta_rev_at_epoch": 7548,
        "meta_bstar": 0.00017791286,
        "meta_mean_motion_dot": 1.292e-05,
        "meta_mean_motion_ddot": 0,
        "tle_line1": "1 41790U 16059H   25356.60226683  .00001292  00000+0  17791-3 0  9997",
        "tle_line2": "2 41790  98.1449  53.3952 0056463  96.9229 263.8409 14.78966851 75487"
      },
      "geometry": {
        "type": "Point",
        "coordinates": [
          53.75158949638926,
          3.7280793432954713
        ]
      }
    },
    {
      "type": "Feature",
      "properties": {
        "norad_id": 41875,
        "name": "GOKTURK 1A",
        "group": "resource",
        "lat": -4.789016828192198,
        "lon": 69.01715902829045,
        "alt_km": 687.9961407602632,
        "timestamp": "2025-12-23T11:34:47.839417+00:00",
        "meta_object_name": "GOKTURK 1A",
        "meta_object_id": "2016-073A",
        "meta_epoch": "2025-12-23T04:10:17.696352",
        "meta_mean_motion": 14.62791887,
        "meta_eccentricity": 0.0001288,
        "meta_inclination": 98.1432,
        "meta_ra_of_asc_node": 249.4,
        "meta_arg_of_pericenter": 80.9928,
        "meta_mean_anomaly": 279.1419,
        "meta_ephemeris_type": 0,
        "meta_classification_type": "U",
        "meta_norad_cat_id": 41875,
        "meta_element_set_no": 999,
        "meta_rev_at_epoch": 48309,
        "meta_bstar": 0.00016861,
        "meta_mean_motion_dot": 8.13e-06,
        "meta_mean_motion_ddot": 0,
        "tle_line1": "1 41875U 16073A   25357.17381593  .00000813  00000+0  16861-3 0  9997",
        "tle_line2": "2 41875  98.1432 249.4000 0001288  80.9928 279.1419 14.62791887483098"
      },
      "geometry": {
        "type": "Point",
        "coordinates": [
          69.01715902829045,
          -4.789016828192198
        ]
      }
    },
    {
      "type": "Feature",
      "properties": {
        "norad_id": 41877,
        "name": "RESOURCESAT-2A",
        "group": "resource",
        "lat": 79.11942542003382,
        "lon": 13.80732359805652,
        "alt_km": 813.1669826534344,
        "timestamp": "2025-12-23T11:34:47.839426+00:00",
        "meta_object_name": "RESOURCESAT-2A",
        "meta_object_id": "2016-074A",
        "meta_epoch": "2025-12-23T04:25:53.684832",
        "meta_mean_motion": 14.21604131,
        "meta_eccentricity": 0.0001557,
        "meta_inclination": 98.7746,
        "meta_ra_of_asc_node": 66.9797,
        "meta_arg_of_pericenter": 207.5592,
        "meta_mean_anomaly": 152.5503,
        "meta_ephemeris_type": 0,
        "meta_classification_type": "U",
        "meta_norad_cat_id": 41877,
        "meta_element_set_no": 999,
        "meta_rev_at_epoch": 46929,
        "meta_bstar": 0.00013406,
        "meta_mean_motion_dot": 2.5e-06,
        "meta_mean_motion_ddot": 0,
        "tle_line1": "1 41877U 16074A   25357.18464913  .00000250  00000+0  13406-3 0  9996",
        "tle_line2": "2 41877  98.7746  66.9797 0001557 207.5592 152.5503 14.21604131469296"
      },
      "geometry": {
        "type": "Point",
        "coordinates": [
          13.80732359805652,
          79.11942542003382
        ]
      }
    }
  ]
}